[{"OBJECT_NAME":"STARLINK-32181","OBJECT_ID":"2024-136W","EPOCH":"2026-03-09T07:51:12.301344","MEAN_MOTION":15.30194267,"ECCENTRICITY":0.00012075,"INCLINATION":53.161,"RA_OF_ASC_NODE":77.0184,"ARG_OF_PERICENTER":95.4758,"MEAN_ANOMALY":264.6381,"EPHEMERIS_TYPE":0,"CLASSIFICATION_TYPE":"U","NORAD_CAT_ID":60349,"ELEMENT_SET_NO":999,"REV_AT_EPOCH":8961,"BSTAR":-1.3737954e-5,"MEAN_MOTION_DOT":-7.66e-6,"MEAN_MOTION_DDOT":0},{"OBJECT_NAME":"TRANSPORTER-1 OBJECT M","OBJECT_ID":"2021-006M","EPOCH":"2026-03-09T22:05:37.843296","MEAN_MOTION":15.3227845,"ECCENTRICITY":0.00102759,"INCLINATION":97.2377,"RA_OF_ASC_NODE":116.7915,"ARG_OF_PERICENTER":187.5492,"MEAN_ANOMALY":172.5597,"EPHEMERIS_TYPE":0,"CLASSIFICATION_TYPE":"U","NORAD_CAT_ID":47424,"ELEMENT_SET_NO":999,"REV_AT_EPOCH":28439,"BSTAR":0.00023985652,"MEAN_MOTION_DOT":7.411e-5,"MEAN_MOTION_DDOT":0}]
